[Satellite]
VERSION=1.1
NAME=NSS-806
NICKNAME=NSS-806
TLE1=1 25239U 98014A   17186.15913747 -.00000283  00000-0  00000-0 0  9997
TLE2=2 25239   0.0580 342.4486 0004621 116.3347 194.3358  1.00271736 14527
